GLOBALSTAR M094         
1 39074U 13005C   25259.15922599 -.00000084  00000+0  10758-3 0  9993
2 39074  51.9945 265.1355 0000571  93.6270 266.4662 12.62269879583869
GLOBALSTAR M096         
1 39075U 13005D   25259.17238414 -.00000086  00000+0  98945-4 0  9999
2 39075  52.0085 313.6820 0000683  99.9410 260.1534 12.62266757582783
GLOBALSTAR M078         
1 39076U 13005E   25259.06710831 -.00000100  00000+0  21655-4 0  9997
2 39076  51.9891  38.3860 0001264  53.1782 306.9201 12.62260096581398
GLOBALSTAR M095         
1 39077U 13005F   25258.69717285 -.00000107  00000+0 -19349-4 0  9991
2 39077  52.0098  36.7259 0001194  82.1023 277.9979 12.62259815581202
GLOBALSTAR M087         
1 52888U 22064A   25258.94863758 -.00000100  00000+0  21347-4 0  9999
2 52888  51.9987 177.3626 0000808  63.4851 296.6099 12.62301412156507
